NORAD_CAT_ID,OBJECT_NAME,OBJECT_TYPE,EPOCH,MEAN_MOTION,ECCENTRICITY,INCLINATION,RA_OF_ASC_NODE,ARG_OF_PERICENTER,MEAN_ANOMALY,BSTAR,MEAN_MOTION_DOT,MEAN_MOTION_DDOT,TLE_LINE0,TLE_LINE1,TLE_LINE2,SEMIMAJOR_AXIS,PERIOD,APOGEE,PERIGEE,DECAYED
51855.0,STARLINK-3545,PAYLOAD,2023-06-04 16:06:50,15.08824875,0.0006487,53.216,228.7662,337.4757,22.5949,0.00038146,5.786e-05,0.0,0 STARLINK-3545,1 51855U 22022D   23155.67142279  .00005786  00000-0  38146-3 0  9997,2 51855  53.2160 228.7662 0006487 337.4757  22.5949 15.08824875 70643,6917.927,95.439,544.279,535.304,0.0
51855.0,STARLINK-3545,PAYLOAD,2023-06-05 04:49:55,15.08845013,0.0007063,53.216,226.3884,341.7503,18.3235,0.00056722,8.755e-05,0.0,0 STARLINK-3545,1 51855U 22022D   23156.20133947  .00008755  00000-0  56722-3 0  9998,2 51855  53.2160 226.3884 0007063 341.7503  18.3235 15.08845013 70728,6917.865,95.437,544.616,534.844,0.0
51855.0,STARLINK-3545,PAYLOAD,2023-06-05 11:11:28,15.08857528,0.0006982,53.2157,225.1987,342.1183,17.9563,0.00082496,0.00012876,0.0,0 STARLINK-3545,1 51855U 22022D   23156.46629659  .00012876  00000-0  82496-3 0  9992,2 51855  53.2157 225.1987 0006982 342.1183  17.9563 15.08857528 70760,6917.827,95.436,544.522,534.862,0.0
51855.0,STARLINK-3545,PAYLOAD,2023-06-05 14:22:14,15.08863013,0.0007048,53.2158,224.6044,342.6726,17.4024,0.00089884,0.0001406,0.0,0 STARLINK-3545,1 51855U 22022D   23156.59877457  .00014060  00000-0  89884-3 0  9992,2 51855  53.2158 224.6044 0007048 342.6726  17.4024 15.08863013 70786,6917.81,95.436,544.551,534.799,0.0
51855.0,STARLINK-3545,PAYLOAD,2023-06-06 07:51:28,15.08856351,0.0007302,53.2156,221.3342,345.5997,14.4785,0.0002265,3.32e-05,0.0,0 STARLINK-3545,1 51855U 22022D   23157.32741075  .00003320  00000-0  22650-3 0  9995,2 51855  53.2156 221.3342 0007302 345.5997  14.4785 15.08856351 70894,6917.83,95.437,544.747,534.644,0.0
51855.0,STARLINK-3545,PAYLOAD,2023-06-06 09:26:51,15.08852454,0.0007147,53.2155,221.0359,344.5712,15.5061,0.00015688,2.209e-05,0.0,0 STARLINK-3545,1 51855U 22022D   23157.39365111  .00002209  00000-0  15688-3 0  9993,2 51855  53.2155 221.0359 0007147 344.5712  15.5061 15.08852454 70900,6917.842,95.437,544.652,534.763,0.0
51855.0,STARLINK-3545,PAYLOAD,2023-06-06 14:13:00,15.0884366,0.000729,53.2154,220.1446,344.325,15.7515,-0.00010506,-1.963e-05,0.0,0 STARLINK-3545,1 51855U 22022D   23157.59237256 -.00001963  00000-0 -10506-3 0  9995,2 51855  53.2154 220.1446 0007290 344.3250  15.7515 15.08843660 70938,6917.869,95.437,544.777,534.691,0.0
51855.0,STARLINK-3545,PAYLOAD,2023-06-07 12:28:24,15.08843807,0.0007478,53.2148,215.9813,346.586,13.4932,-4.8877e-05,-1.069e-05,0.0,0 STARLINK-3545,1 51855U 22022D   23158.51973268 -.00001069  00000-0 -48877-4 0  9998,2 51855  53.2148 215.9813 0007478 346.5860  13.4932 15.08843807 71077,6917.869,95.437,544.907,534.561,0.0
51855.0,STARLINK-3545,PAYLOAD,2023-06-07 20:25:20,15.08841228,0.0007533,53.2143,214.4945,347.3244,12.7557,-9.461e-05,-1.797e-05,0.0,0 STARLINK-3545,1 51855U 22022D   23158.85093375 -.00001797  00000-0 -94610-4 0  9991,2 51855  53.2143 214.4945 0007533 347.3244  12.7557 15.08841228 71125,6917.877,95.437,544.953,534.53,0.0
51855.0,STARLINK-3545,PAYLOAD,2023-06-08 02:46:53,15.08835448,0.0007348,53.2153,213.3054,346.9044,13.1756,-3.9349e-05,-9.17e-06,0.0,0 STARLINK-3545,1 51855U 22022D   23159.11589684 -.00000917  00000-0 -39349-4 0  9995,2 51855  53.2153 213.3054 0007348 346.9044  13.1756 15.08835448 71169,6917.894,95.438,544.843,534.676,0.0
51855.0,STARLINK-3545,PAYLOAD,2023-06-08 09:08:26,15.08830352,0.0007209,53.2164,212.1152,347.1566,12.9241,-9.646e-07,-3.06e-06,0.0,0 STARLINK-3545,1 51855U 22022D   23159.38086522 -.00000306  00000-0 -96460-6 0  9998,2 51855  53.2164 212.1152 0007209 347.1566  12.9241 15.08830352 71205,6917.91,95.438,544.762,534.788,0.0
51855.0,STARLINK-3545,PAYLOAD,2023-06-08 20:16:08,15.08836451,0.0007185,53.2171,210.034,349.3439,10.7399,1.7833e-05,-7e-08,0.0,0 STARLINK-3545,1 51855U 22022D   23159.84454248 -.00000007  00000-0  17833-4 0  9995,2 51855  53.2171 210.0340 0007185 349.3439  10.7399 15.08836451 71278,6917.891,95.438,544.727,534.786,0.0
51855.0,STARLINK-3545,PAYLOAD,2023-06-09 12:09:59,15.08849062,0.0007283,53.2166,207.0597,350.0781,10.0066,9.4138e-05,1.209e-05,0.0,0 STARLINK-3545,1 51855U 22022D   23160.50693493  .00001209  00000-0  94138-4 0  9994,2 51855  53.2166 207.0597 0007283 350.0781  10.0066 15.08849062 71377,6917.853,95.437,544.756,534.679,0.0
51855.0,STARLINK-3545,PAYLOAD,2023-06-09 20:06:55,15.08843027,0.0007251,53.2165,205.5729,350.7784,9.3074,0.0001663,2.359e-05,0.0,0 STARLINK-3545,1 51855U 22022D   23160.83813768  .00002359  00000-0  16630-3 0  9996,2 51855  53.2165 205.5729 0007251 350.7784   9.3074 15.08843027 71422,6917.871,95.437,544.752,534.72,0.0
51855.0,STARLINK-3545,PAYLOAD,2023-06-10 04:03:51,15.08829252,0.0007254,53.2157,204.0861,351.5919,8.495,0.00025206,3.724e-05,0.0,0 STARLINK-3545,1 51855U 22022D   23161.16934727  .00003724  00000-0  25206-3 0  9998,2 51855  53.2157 204.0861 0007254 351.5919   8.4950 15.08829252 71478,6917.913,95.438,544.796,534.76,0.0
51855.0,STARLINK-3545,PAYLOAD,2023-06-10 12:00:47,15.08826726,0.0007319,53.2155,202.5992,352.9558,7.133,-4.2372e-05,-9.65e-06,0.0,0 STARLINK-3545,1 51855U 22022D   23161.50055056 -.00000965  00000-0 -42372-4 0  9995,2 51855  53.2155 202.5992 0007319 352.9558   7.1330 15.08826726 71527,6917.921,95.438,544.849,534.723,0.0
51855.0,STARLINK-3545,PAYLOAD,2023-06-10 19:57:43,15.08831174,0.0007246,53.2157,201.113,353.3332,6.7562,-6.5566e-06,-3.95e-06,0.0,0 STARLINK-3545,1 51855U 22022D   23161.83175025 -.00000395  00000-0 -65566-5 0  9998,2 51855  53.2157 201.1130 0007246 353.3332   6.7562 15.08831174 71572,6917.907,95.438,544.785,534.76,0.0
51855.0,STARLINK-3545,PAYLOAD,2023-06-11 02:19:16,15.08824272,0.0007202,53.2166,199.9234,354.2809,5.81,0.00020278,2.939e-05,0.0,0 STARLINK-3545,1 51855U 22022D   23162.09671563  .00002939  00000-0  20278-3 0  9998,2 51855  53.2166 199.9234 0007202 354.2809   5.8100 15.08824272 71616,6917.928,95.439,544.776,534.811,0.0
51855.0,STARLINK-3545,PAYLOAD,2023-06-11 08:40:48,15.08840473,0.0007304,53.2164,198.7342,354.8448,5.2468,4.7356e-05,4.64e-06,0.0,0 STARLINK-3545,1 51855U 22022D   23162.36166928  .00000464  00000-0  47356-4 0  9990,2 51855  53.2164 198.7342 0007304 354.8448   5.2468 15.08840473 71655,6917.879,95.438,544.797,534.691,0.0
51855.0,STARLINK-3545,PAYLOAD,2023-06-11 11:51:34,15.08842436,0.0007295,53.2162,198.1394,354.6418,5.4495,-3.6755e-06,-3.49e-06,0.0,0 STARLINK-3545,1 51855U 22022D   23162.49414921 -.00000349  00000-0 -36755-5 0  9999,2 51855  53.2162 198.1394 0007295 354.6418   5.4495 15.08842436 71673,6917.873,95.437,544.785,534.691,0.0
51855.0,STARLINK-3545,PAYLOAD,2023-06-11 19:48:29,15.08846287,0.0007302,53.2164,196.6525,355.3323,4.7599,3.7451e-05,3.06e-06,0.0,0 STARLINK-3545,1 51855U 22022D   23162.82534508  .00000306  00000-0  37451-4 0  9994,2 51855  53.2164 196.6525 0007302 355.3323   4.7599 15.08846287 71727,6917.861,95.437,544.778,534.675,0.0
51855.0,STARLINK-3545,PAYLOAD,2023-06-12 08:31:34,15.08846077,0.0007309,53.2161,194.2731,356.0491,4.0443,0.00018082,2.59e-05,0.0,0 STARLINK-3545,1 51855U 22022D   23163.35526118  .00002590  00000-0  18082-3 0  9996,2 51855  53.2161 194.2731 0007309 356.0491   4.0443 15.08846077 71805,6917.862,95.437,544.783,534.671,0.0
51855.0,STARLINK-3545,PAYLOAD,2023-06-12 11:42:20,15.08845342,0.0007301,53.2161,193.6783,356.8854,3.2092,0.00024078,3.546e-05,0.0,0 STARLINK-3545,1 51855U 22022D   23163.48774090  .00003546  00000-0  24078-3 0  9998,2 51855  53.2161 193.6783 0007301 356.8854   3.2092 15.08845342 71825,6917.864,95.437,544.78,534.678,0.0
51855.0,STARLINK-3545,PAYLOAD,2023-06-12 19:39:16,15.08848955,0.0007331,53.2162,192.1916,357.8689,2.2271,0.00023254,3.415e-05,0.0,0 STARLINK-3545,1 51855U 22022D   23163.81893930  .00003415  00000-0  23254-3 0  9990,2 51855  53.2162 192.1916 0007331 357.8689   2.2271 15.08848955 71874,6917.853,95.437,544.789,534.647,0.0
51855.0,STARLINK-3545,PAYLOAD,2023-06-13 11:33:08,15.08838391,0.0007359,53.2171,189.2184,0.1451,359.9542,3.4723e-05,2.62e-06,0.0,0 STARLINK-3545,1 51855U 22022D   23164.48135005  .00000262  00000-0  34723-4 0  9997,2 51855  53.2171 189.2184 0007359   0.1451 359.9542 15.08838391 71970,6917.885,95.438,544.841,534.659,0.0
51855.0,STARLINK-3545,PAYLOAD,2023-06-14 11:23:55,15.08836378,0.0007458,53.2178,184.7607,1.8972,358.2047,-3.9666e-05,-9.22e-06,0.0,0 STARLINK-3545,1 51855U 22022D   23165.47495357 -.00000922  00000-0 -39666-4 0  9992,2 51855  53.2178 184.7607 0007458   1.8972 358.2047 15.08836378 72126,6917.891,95.438,544.916,534.597,0.0
51855.0,STARLINK-3545,PAYLOAD,2023-06-14 17:45:28,15.0883915,0.0007517,53.2178,183.5711,2.4771,357.6257,-9.7437e-05,-1.842e-05,0.0,0 STARLINK-3545,1 51855U 22022D   23165.73991336 -.00001842  00000-0 -97437-4 0  9991,2 51855  53.2178 183.5711 0007517   2.4771 357.6257 15.08839150 72160,6917.883,95.438,544.948,534.548,0.0
51855.0,STARLINK-3545,PAYLOAD,2023-06-15 08:03:56,15.08836283,0.0007394,53.2161,180.8922,4.2954,355.81,0.00010558,1.391e-05,0.0,0 STARLINK-3545,1 51855U 22022D   23166.33607015  .00001391  00000-0  10558-3 0  9991,2 51855  53.2161 180.8922 0007394   4.2954 355.8100 15.08836283 72253,6917.892,95.438,544.872,534.642,0.0
51855.0,STARLINK-3545,PAYLOAD,2023-06-15 17:36:15,15.08830665,0.0007488,53.216,179.1081,4.9954,355.1111,8.2016e-05,1.015e-05,0.0,0 STARLINK-3545,1 51855U 22022D   23166.73351678  .00001015  00000-0  82016-4 0  9998,2 51855  53.2160 179.1081 0007488   4.9954 355.1111 15.08830665 72310,6917.909,95.438,544.954,534.594,0.0
51855.0,STARLINK-3545,PAYLOAD,2023-06-16 01:33:11,15.08829466,0.0007416,53.2159,177.6212,5.7593,354.3483,3.215e-05,2.21e-06,0.0,0 STARLINK-3545,1 51855U 22022D   23167.06472112  .00000221  00000-0  32150-4 0  9994,2 51855  53.2159 177.6212 0007416   5.7593 354.3483 15.08829466 72361,6917.913,95.438,544.908,534.647,0.0
